{"spkid": "20613471", "covariance": {"epoch": "2458207.5", "data": [["3.405904981605377E-15", "-3.422148473008716E-15", "1.457264705708781E-13", "-2.542759668563494E-13", "2.141255794983873E-13", "1.784102936982185E-14", "-1.043051819431449E-21"], ["-3.422148473008716E-15", "3.456892218273714E-15", "-2.602575229684493E-13", "2.182622083100366E-13", "-2.205077829050661E-13", "-1.733537926135292E-14", "1.17309003284875E-21"], ["1.457264705708781E-13", "-2.602575229684493E-13", "1.603464732830155E-9", "8.945208396864045E-10", "-7.644148313958471E-11", "-1.094619678499607E-11", "-8.121380187596446E-19"], ["-2.542759668563494E-13", "2.182622083100366E-13", "8.945208396864045E-10", "1.062365106973955E-8", "-1.010916581596032E-8", "-1.638673074927346E-10", "-1.617800303895334E-19"], ["2.141255794983873E-13", "-2.205077829050661E-13", "-7.644148313958471E-11", "-1.010916581596032E-8", "1.004369585853644E-8", "1.571663268776711E-10", "-1.079128926279051E-19"], ["1.784102936982185E-14", "-1.733537926135292E-14", "-1.094619678499607E-11", "-1.638673074927346E-10", "1.571663268776711E-10", "6.062541511768491E-12", "-1.770568322420502E-21"], ["-1.043051819431449E-21", "1.17309003284875E-21", "-8.121380187596446E-19", "-1.617800303895334E-19", "-1.079128926279051E-19", "-1.770568322420502E-21", "1.183772207280294E-27"]], "elements": [{"value": ".3006215740494808", "title": "eccentricity", "units": null, "name": "e", "sigma": 5.83601317819398e-08, "label": "e"}, {"name": "q", "sigma": 5.87953418076102e-08, "units": "au", "title": "perihelion distance", "value": ".6648054530259215", "label": "q"}, {"sigma": 4.00432857396862e-05, "name": "tp", "value": "2458273.187683912937", "title": "time of perihelion passage", "units": "TDB", "label": "tp"}, {"title": "longitude of the ascending node", "value": "93.49754829611106", "units": "deg", "sigma": 0.000103071097159871, "name": "om", "label": "node"}, {"value": "110.3050328380143", "title": "argument of perihelion", "units": "deg", "name": "w", "sigma": 0.000100218241146692, "label": "peri"}, {"label": "i", "units": "deg", "title": "inclination", "value": "1.414726170064559", "sigma": 2.46222288019758e-06, "name": "i"}], "labels": ["e", "q", "tp", "node", "peri", "i", "A2"]}, "elements": [{"sigma": "5.8283E-8", "name": "e", "title": "eccentricity", "value": ".3003608930266679", "units": null, "label": "e"}, {"label": "a", "sigma": "2.0483E-8", "name": "a", "value": ".9504179169862772", "title": "semi-major axis", "units": "au"}, {"label": "q", "name": "q", "sigma": "6.3831E-8", "title": "perihelion distance", "value": ".6649495426917335", "units": "au"}, {"label": "i", "value": "1.414597214096328", "title": "inclination; angle with respect to x-y ecliptic plane", "units": "deg", "name": "i", "sigma": "2.4584E-6"}, {"label": "node", "name": "om", "sigma": ".00010323", "units": "deg", "value": "93.4489658791784", "title": "longitude of the ascending node"}, {"label": "peri", "name": "w", "sigma": ".00010033", "units": "deg", "title": "argument of perihelion", "value": "110.3294936792025"}, {"label": "M", "sigma": "5.7597E-5", "name": "ma", "units": "deg", "title": "mean anomaly", "value": "232.7346870004583"}, {"title": "time of perihelion passage", "value": "2461320.140411583878", "units": "TDB", "sigma": "5.7334E-5", "name": "tp", "label": "tp"}, {"sigma": "1.0941E-5", "name": "per", "title": "sidereal orbital period", "value": "338.4311652174331", "units": "d", "label": "period"}, {"name": "n", "sigma": "3.4388E-8", "units": "deg/d", "title": "mean motion", "value": "1.063731822004955", "label": "n"}, {"value": "1.235886291280821", "title": "aphelion distance", "units": "au", "name": "ad", "sigma": "2.6635E-8", "label": "Q"}], "epoch": "2461200.5"}